OBJECT_NAME,OBJECT_ID,EPOCH,MEAN_MOTION,ECCENTRICITY,INCLINATION,RA_OF_ASC_NODE,ARG_OF_PERICENTER,MEAN_ANOMALY,EPHEMERIS_TYPE,CLASSIFICATION_TYPE,NORAD_CAT_ID,ELEMENT_SET_NO,REV_AT_EPOCH,BSTAR,MEAN_MOTION_DOT,MEAN_MOTION_DDOT
ONEWEB-0721,2023-068R,2026-07-20T03:03:15.382368,13.22471272,.00017435,86.6737,74.9993,80.6418,279.4912,0,U,56725,999,16229,-.76590244E-4,-.17E-6,0
ONEWEB-0015,2024-188A,2026-07-20T00:58:42.711168,13.11415998,.00013891,87.8885,14.5499,79.7283,280.4002,0,U,61594,999,8876,-.13712162E-2,-.473E-5,0
ONEWEB-0687,2024-188B,2026-07-20T04:29:23.239392,13.17648264,.00018323,87.9146,359.3104,78.4054,281.7284,0,U,61595,999,9024,-.5061467E-3,-.184E-5,0
ONEWEB-0688,2024-188C,2026-07-20T03:21:20.082528,13.17648389,.00008908,87.9146,359.3195,59.7342,300.3878,0,U,61596,999,9023,.19742536E-3,.9E-6,0
ONEWEB-0689,2024-188D,2026-07-19T23:57:41.098176,13.11418191,.00020637,87.8896,14.5214,84.9985,275.1378,0,U,61597,999,8875,.97838625E-3,.359E-5,0
ONEWEB-0690,2024-188E,2026-07-20T00:12:20.996640,13.11417223,.00017665,87.8895,14.5294,112.2958,247.8357,0,U,61598,999,8893,.14395341E-2,.523E-5,0
ONEWEB-0691,2024-188F,2026-07-20T00:05:01.650912,13.11417403,.00016093,87.8907,14.4418,80.4995,279.6315,0,U,61599,999,8878,.11113672E-2,.407E-5,0
ONEWEB-0692,2024-188G,2026-07-20T00:34:18.101568,13.11416519,.00026383,87.8885,14.5452,92.5015,267.6415,0,U,61600,999,8877,.74555601E-3,.277E-5,0
ONEWEB-0693,2024-188H,2026-07-19T23:59:39.854976,13.17649169,.00016107,87.9142,359.3658,119.3279,240.8013,0,U,61601,999,9020,-.37817693E-3,-.134E-5,0
ONEWEB-0695,2024-188J,2026-07-20T05:29:44.352384,13.11417968,.00023404,87.8883,14.4964,85.9520,274.1876,0,U,61602,999,8879,.74810118E-3,.278E-5,0
ONEWEB-0697,2024-188K,2026-07-20T04:26:15.067968,13.11415574,.00025977,87.8887,14.4956,94.5772,265.5653,0,U,61603,999,8877,-.2073419E-3,-.61E-6,0
ONEWEB-0698,2024-188L,2026-07-20T05:44:23.756640,13.11417115,.00026656,87.8886,14.4983,113.8546,246.2862,0,U,61604,999,8880,.16582939E-2,.6E-5,0
ONEWEB-0699,2024-188M,2026-07-20T01:10:32.612448,13.10374383,.00024966,87.8819,29.7163,94.6843,265.4569,0,U,61605,999,8761,.18051023E-2,.643E-5,0
ONEWEB-0700,2024-188N,2026-07-20T06:42:51.724512,13.10367069,.00025193,87.8841,29.5847,92.0958,268.0458,0,U,61606,999,8763,.27720957E-2,.98E-5,0
ONEWEB-0701,2024-188P,2026-07-20T01:37:25.017024,13.10369737,.00026175,87.8818,29.7129,95.6528,264.4898,0,U,61607,999,8761,.51551227E-3,.193E-5,0
ONEWEB-0702,2024-188Q,2026-07-19T23:30:49.796928,13.11417763,.00028681,87.8908,14.4618,90.0704,270.0753,0,U,61608,999,8878,-.1154866E-2,-.397E-5,0
ONEWEB-0704,2024-188R,2026-07-20T06:50:10.683168,13.10371298,.00028792,87.8823,29.6600,85.4616,274.6840,0,U,61609,999,8762,.17763965E-2,.633E-5,0
ONEWEB-0705,2024-188S,2026-07-20T01:27:38.992608,13.10370590,.00025701,87.8824,29.7107,70.5604,289.5801,0,U,61610,999,7976,.15236952E-2,.545E-5,0
ONEWEB-0706,2024-188T,2026-07-20T01:05:39.161760,13.10374900,.00024025,87.8822,29.7171,83.3560,276.7841,0,U,61611,999,8768,.15166403E-2,.542E-5,0
ONEWEB-0707,2024-188U,2026-07-20T01:15:25.243200,13.10371416,.00024198,87.8825,29.7113,84.6954,275.4449,0,U,61612,999,8762,.16410371E-2,.586E-5,0
ONEWEB-0708,2024-188V,2026-07-20T05:22:11.754624,13.10368561,.00018914,87.8813,29.6929,71.5762,288.5571,0,U,61613,999,8762,.16604213E-3,.71E-6,0
